[{"OBJECT_NAME":"HEAD-3E","OBJECT_ID":"2023-121E","EPOCH":"2026-03-09T23:59:07.461888","MEAN_MOTION":14.63663641,"ECCENTRICITY":0.00059847,"INCLINATION":45.0019,"RA_OF_ASC_NODE":57.8251,"ARG_OF_PERICENTER":100.8925,"MEAN_ANOMALY":259.2607,"EPHEMERIS_TYPE":0,"CLASSIFICATION_TYPE":"U","NORAD_CAT_ID":57630,"ELEMENT_SET_NO":999,"REV_AT_EPOCH":13735,"BSTAR":0.00024519246,"MEAN_MOTION_DOT":1.125e-5,"MEAN_MOTION_DDOT":0},{"OBJECT_NAME":"USA 77","OBJECT_ID":"1991-076E","EPOCH":"2026-03-09T07:24:20.850624","MEAN_MOTION":13.55637552,"ECCENTRICITY":0.09000478,"INCLINATION":63.297,"RA_OF_ASC_NODE":64.3553,"ARG_OF_PERICENTER":72.7499,"MEAN_ANOMALY":296.9934,"EPHEMERIS_TYPE":0,"CLASSIFICATION_TYPE":"U","NORAD_CAT_ID":21809,"ELEMENT_SET_NO":999,"REV_AT_EPOCH":9072,"BSTAR":0.00037093112,"MEAN_MOTION_DOT":4.569e-5,"MEAN_MOTION_DDOT":0}]
